{
  "norad_id": 53479,
  "name": "STARLINK-4436",
  "history": [
    {
      "epoch": "2026-03-28T21:49:10.256736Z",
      "apogee_km": 550.1473524818684,
      "perigee_km": 548.8782070422167,
      "latitude_deg": 4.0676547601374607e-05,
      "longitude_deg": 56.62052659970323,
      "height_km": 553.0152877393293,
      "semi_major_axis_km": 6927.649779762042,
      "eccentricity": 9.16e-05,
      "inclination_deg": 97.6027,
      "raan_deg": 210.2361,
      "arg_perigee_deg": 226.5631,
      "mean_anomaly_deg": 133.552,
      "mean_motion_rev_day": 15.0564947
    },
    {
      "epoch": "2026-03-28T21:49:10.257600Z",
      "apogee_km": 550.1470753758776,
      "perigee_km": 548.8784841482075,
      "latitude_deg": 3.734775019626325e-05,
      "longitude_deg": 56.62052343172803,
      "height_km": 553.015097173693,
      "semi_major_axis_km": 6927.649779762042,
      "eccentricity": 9.156e-05,
      "inclination_deg": 97.6027,
      "raan_deg": 210.2361,
      "arg_perigee_deg": 226.5631,
      "mean_anomaly_deg": 133.552,
      "mean_motion_rev_day": 15.0564947
    },
    {
      "epoch": "2026-03-30T05:43:10.371072Z",
      "apogee_km": 550.1111257489647,
      "perigee_km": 548.9159674766634,
      "latitude_deg": 7.573294313081102e-05,
      "longitude_deg": -61.87984145805369,
      "height_km": 553.0470284522223,
      "semi_major_axis_km": 6927.650546612814,
      "eccentricity": 8.626e-05,
      "inclination_deg": 97.6026,
      "raan_deg": 211.5463,
      "arg_perigee_deg": 218.5337,
      "mean_anomaly_deg": 141.5829,
      "mean_motion_rev_day": 15.0564922
    },
    {
      "epoch": "2026-03-30T13:41:40.282368Z",
      "apogee_km": 550.1309237337455,
      "perigee_km": 548.8951695184287,
      "latitude_deg": 8.725032146170186e-05,
      "longitude_deg": 178.49520639701262,
      "height_km": 553.1119213669596,
      "semi_major_axis_km": 6927.650046626087,
      "eccentricity": 8.919e-05,
      "inclination_deg": 97.6026,
      "raan_deg": 211.8735,
      "arg_perigee_deg": 210.3953,
      "mean_anomaly_deg": 149.7223,
      "mean_motion_rev_day": 15.05649383
    },
    {
      "epoch": "2026-03-30T21:40:10.102944Z",
      "apogee_km": 550.0610228644919,
      "perigee_km": 548.95135297865,
      "latitude_deg": -7.4431953464472105e-06,
      "longitude_deg": 58.8716473857755,
      "height_km": 552.9715029228533,
      "semi_major_axis_km": 6927.643187921571,
      "eccentricity": 8.009e-05,
      "inclination_deg": 97.602,
      "raan_deg": 212.2017,
      "arg_perigee_deg": 223.9811,
      "mean_anomaly_deg": 136.1352,
      "mean_motion_rev_day": 15.05651619
    },
    {
      "epoch": "2026-03-31T18:24:16.678944Z",
      "apogee_km": 550.1097838546011,
      "perigee_km": 548.9320820060038,
      "latitude_deg": -2.9085391492572074e-05,
      "longitude_deg": 107.84428868499303,
      "height_km": 553.0055973198688,
      "semi_major_axis_km": 6927.657932930302,
      "eccentricity": 8.5e-05,
      "inclination_deg": 97.602,
      "raan_deg": 213.0533,
      "arg_perigee_deg": 224.7031,
      "mean_anomaly_deg": 135.4127,
      "mean_motion_rev_day": 15.05646812
    },
    {
      "epoch": "2026-04-01T07:09:52.179840Z",
      "apogee_km": 550.1645727760497,
      "perigee_km": 548.8510913158943,
      "latitude_deg": -1.1720659200629373e-05,
      "longitude_deg": -83.55366220995846,
      "height_km": 553.0000282078512,
      "semi_major_axis_km": 6927.644832045971,
      "eccentricity": 9.48e-05,
      "inclination_deg": 97.6022,
      "raan_deg": 213.5773,
      "arg_perigee_deg": 229.5718,
      "mean_anomaly_deg": 130.5426,
      "mean_motion_rev_day": 15.05651083
    },
    {
      "epoch": "2026-04-02T18:15:16.061184Z",
      "apogee_km": 550.3206685076439,
      "perigee_km": 548.6871307835081,
      "latitude_deg": 7.676325603804602e-07,
      "longitude_deg": 110.09663818907904,
      "height_km": 553.1519799805912,
      "semi_major_axis_km": 6927.640899645576,
      "eccentricity": 0.0001179,
      "inclination_deg": 97.6026,
      "raan_deg": 215.0182,
      "arg_perigee_deg": 224.5952,
      "mean_anomaly_deg": 135.518,
      "mean_motion_rev_day": 15.05652365
    }
  ]
}